ONEWEB-0029             
1 45445U 20020X   25098.50941598 -.00000510  00000+0 -14756-2 0  9993
2 45445  87.8793 107.7097 0002140  88.6697 271.4676 13.11418201245688
ONEWEB-0068             
1 45446U 20020Y   25098.49065014  .00000147  00000+0  37948-3 0  9995
2 45446  87.8791 107.7018 0002119  87.8197 272.3174 13.11414230245627
ONEWEB-0046             
1 45447U 20020Z   25098.48231007  .00000437  00000+0  11969-2 0  9998
2 45447  87.8791 107.7129 0002218  95.5351 264.6030 13.11415175245634
ONEWEB-0063             
1 45448U 20020AA  25098.51112205 -.00000526  00000+0 -15188-2 0  9999
2 45448  87.8793 107.7058 0002041  98.5048 261.6312 13.11416297245724
ONEWEB-0019             
1 45449U 20020AB  25098.48568705  .00000297  00000+0  80313-3 0  9992
2 45449  87.8796 107.7258 0001663  89.9140 270.2178 13.11417606245569
ONEWEB-0094             
1 45450U 20020AC  25098.47075799  .00000042  00000+0  75413-4 0  9993
2 45450  87.9003  92.4157 0002062  88.9510 271.1858 13.17647209249069
ONEWEB-0087             
1 45451U 20020AD  25098.44485391 -.00000318  00000+0 -93382-3 0  9996
2 45451  87.8787 107.6761 0002243  88.1894 271.9491 13.11419686245603
ONEWEB-0082             
1 45452U 20020AE  25098.51789863 -.00000430  00000+0 -12496-2 0  9997
2 45452  87.8793 107.6799 0002014  85.5967 274.5391 13.11418527245702
ONEWEB-0050             
1 45453U 20020AF  25098.83597584  .00004189  00000+0  38674-3 0  9990
2 45453  87.9979 313.0240 0005094  92.8397 267.3417 14.94412567275705
ONEWEB-0034             
1 45454U 20020AG  25098.46365939  .00000407  00000+0  11123-2 0  9995
2 45454  87.8792 107.7103 0001970  90.0266 270.1088 13.11417906245611
ONEWEB-0060             
1 45455U 20020AH  25098.50616595 -.00000493  00000+0 -14279-2 0  9990
2 45455  87.8795 107.7267 0001999  95.6152 264.5204 13.11417323245577
ONEWEB-0086             
1 45456U 20020AJ  25098.48909162  .00000164  00000+0  42695-3 0  9990
2 45456  87.8789 107.7043 0002310  85.7989 274.3403 13.11414756245633
ONEWEB-0088             
1 45457U 20020AK  25098.46704240  .00000562  00000+0  15495-2 0  9998
2 45457  87.8787 107.6611 0002162  91.2791 268.8584 13.11418410245561
ONEWEB-0102             
1 47258U 20100A   25098.43045698 -.00000292  00000+0 -84849-3 0  9992
2 47258  87.8825  77.1918 0001767  85.5970 274.5360 13.12440799207707
ONEWEB-0109             
1 47259U 20100B   25098.43857457 -.00000214  00000+0 -63014-3 0  9992
2 47259  87.8827  77.1582 0001800  84.3941 275.7393 13.12444170207537
ONEWEB-0110             
1 47260U 20100C   25098.38829940  .00000627  00000+0  17073-2 0  9993
2 47260  87.8821  77.1566 0001857  81.4953 278.6386 13.12442341207697
ONEWEB-0111             
1 47261U 20100D   25098.49533878 -.00000323  00000+0 -93423-3 0  9997
2 47261  87.8828  77.1459 0001851  85.5883 274.5457 13.12443566207545
ONEWEB-0114             
1 47262U 20100E   25098.44993799  .00000206  00000+0  53858-3 0  9991
2 47262  87.8822  77.1582 0001619  90.5231 269.6083 13.12443331207496
ONEWEB-0117             
1 47263U 20100F   25098.44181778 -.00000100  00000+0 -31441-3 0  9997
2 47263  87.8827  77.1478 0001979  84.6141 275.5214 13.12444284207501
ONEWEB-0118             
1 47264U 20100G   25098.47426562  .00000374  00000+0  10040-2 0  9996
2 47264  87.8826  77.1432 0001802  95.8128 264.3205 13.12442828207705
ONEWEB-0119             
1 47265U 20100H   25098.42559757 -.00000342  00000+0 -98498-3 0  9996
2 47265  87.8828  77.1920 0001912  84.2049 275.9298 13.12443519207670
ONEWEB-0120             
1 47266U 20100J   25098.44845751  .00000050  00000+0  10231-3 0  9994
2 47266  87.8829  77.1812 0001799  87.7312 272.4023 13.12444913207707
ONEWEB-0121             
1 47267U 20100K   25098.43693871 -.00000274  00000+0 -79694-3 0  9996
2 47267  87.8821  77.1588 0001943  81.5393 278.5956 13.12442436207612
ONEWEB-0122             
1 47268U 20100L   25098.88937773 -.00000269  00000+0 -78282-3 0  9994
2 47268  87.8821  77.0737 0001743  81.3432 278.7894 13.12440924207587
ONEWEB-0123             
1 47269U 20100M   25098.88464200 -.00000330  00000+0 -95176-3 0  9995
2 47269  87.8827  77.0986 0001914  87.9612 272.1736 13.12443024207725
ONEWEB-0124             
1 47270U 20100N   25098.49209776 -.00000203  00000+0 -60061-3 0  9993
2 47270  87.8828  77.1749 0002124  83.6660 276.4710 13.12443125207558
ONEWEB-0125             
1 47271U 20100P   25098.46940449  .00000457  00000+0  12341-2 0  9996
2 47271  87.8828  77.1417 0002183  90.4067 269.7311 13.12442477207611
ONEWEB-0126             
1 47272U 20100Q   25098.49453484 -.00000290  00000+0 -84246-3 0  9999
2 47272  87.8847  77.1363 0001811  87.0790 273.0546 13.12441771207686
ONEWEB-0127             
1 47273U 20100R   25098.45641734  .00000178  00000+0  45822-3 0  9993
2 47273  87.8827  77.1775 0001787  85.2615 274.8718 13.12443279207708
ONEWEB-0128             
1 47274U 20100S   25098.47912663  .00000256  00000+0  67507-3 0  9999
2 47274  87.8834  77.1944 0001870  78.3543 281.7795 13.12443553207720
ONEWEB-0129             
1 47275U 20100T   25098.45804714  .00000414  00000+0  11164-2 0  9998
2 47275  87.8827  77.1472 0000802 108.4505 251.6711 13.12442567207656
ONEWEB-0130             
1 47276U 20100U   25098.48561370 -.00000039  00000+0 -14286-3 0  9994
2 47276  87.8824  77.1443 0001892  82.3522 277.7821 13.12442865207620
ONEWEB-0131             
1 47277U 20100V   25098.48237110  .00000079  00000+0  18378-3 0  9995
2 47277  87.8828  77.1684 0001954  82.5260 277.6090 13.12442985207666
ONEWEB-0132             
1 47278U 20100W   25098.43533231 -.00000270  00000+0 -78567-3 0  9995
2 47278  87.8828  77.1793 0002160  84.5303 275.6072 13.12443485207550
ONEWEB-0133             
1 47279U 20100X   25098.83270383  .00003943  00000+0  10916-1 0  9996
2 47279  87.8821  77.0820 0002028  80.7529 279.3829 13.12475778207769
ONEWEB-0134             
1 47280U 20100Y   25098.42072612 -.00000339  00000+0 -97725-3 0  9991
2 47280  87.8822  77.1488 0001736  79.0449 281.0875 13.12443356207689
ONEWEB-0135             
1 47281U 20100Z   25098.84896705  .00000430  00000+0  11591-2 0  9991
2 47281  87.8828  77.0963 0001808  70.7811 289.3513 13.12440993207767
ONEWEB-0136             
1 47282U 20100AA  25098.48723901 -.00000066  00000+0 -21772-3 0  9999
2 47282  87.8827  77.1355 0001497  75.1237 285.0057 13.12442133207649
ONEWEB-0137             
1 47283U 20100AB  25098.44506037 -.00000024  00000+0 -10113-3 0  9996
2 47283  87.8822  77.1550 0001879  91.8767 268.2576 13.12445056207544
ONEWEB-0138             
1 47284U 20100AC  25098.50021464 -.00000356  00000+0 -10264-2 0  9994
2 47284  87.8823  77.1556 0001809  84.8957 275.2378 13.12442181207632
ONEWEB-0139             
1 47285U 20100AD  25098.46305887  .00000466  00000+0  12589-2 0  9996
2 47285  87.8826  77.1498 0001921  85.6147 274.5201 13.12443873207700
ONEWEB-0140             
1 47286U 20100AE  25098.49372306 -.00000298  00000+0 -86359-3 0  9992
2 47286  87.8822  77.1335 0001825  82.6758 277.4578 13.12442966207672
ONEWEB-0141             
1 47287U 20100AF  25098.46277249  .00000447  00000+0  12066-2 0  9997
2 47287  87.8824  77.1561 0001908  96.7845 263.3501 13.12443098207656
ONEWEB-0142             
1 47288U 20100AG  25098.45179733  .00001306  00000+0  35902-2 0  9995
2 47288  87.8827  77.1501 0001631  92.5506 267.5809 13.12520400207644
ONEWEB-0143             
1 47289U 20100AH  25098.84247642  .00000390  00000+0  10487-2 0  9997
2 47289  87.8826  77.0847 0001922  85.1279 275.0069 13.12443275207673
ONEWEB-0144             
1 47290U 20100AJ  25098.43370221 -.00000335  00000+0 -96647-3 0  9998
2 47290  87.8823  77.1482 0001606  87.8091 272.3221 13.12444148207544
ONEWEB-0145             
1 47291U 20100AK  25098.48075140  .00000151  00000+0  38313-3 0  9996
2 47291  87.8825  77.1641 0001823  86.1145 274.0192 13.12440414207747
ONEWEB-0146             
1 47292U 20100AL  25098.47749221  .00000294  00000+0  78190-3 0  9999
2 47292  87.8825  77.1509 0002260  81.6150 278.5234 13.12441312207657
ONEWEB-0147             
1 47293U 20100AM  25098.44344415 -.00000089  00000+0 -28203-3 0  9997
2 47293  87.8822  77.1402 0001765  77.9548 282.1778 13.12443809207540
ONEWEB-0115             
1 48042U 21025A   25098.88724053  .00000800  00000+0  21543-2 0  9993
2 48042  87.8962  46.5266 0001898  79.7814 280.3529 13.13479837196596
ONEWEB-0152             
1 48043U 21025B   25098.59607511  .00000163  00000+0  41236-3 0  9995
2 48043  87.8962  46.5946 0002098  78.5546 281.5818 13.13472247196507
ONEWEB-0153             
1 48044U 21025C   25098.57407461 -.00000269  00000+0 -77157-3 0  9996
2 48044  87.8965  46.5943 0001882  81.5519 278.5823 13.13472239196493
ONEWEB-0154             
1 48045U 21025D   25098.57068367 -.00000209  00000+0 -60595-3 0  9997
2 48045  87.8963  46.5969 0001931  79.2691 280.8655 13.13473505196452
ONEWEB-0116             
1 48046U 21025E   25098.38110728  .00000362  00000+0  95745-3 0  9999
2 48046  87.8967  46.6119 0002041  77.7480 282.3878 13.13471687196573
ONEWEB-0150             
1 48047U 21025F   25098.58592253 -.00000165  00000+0 -48724-3 0  9997
2 48047  87.8960  46.5733 0001848  85.1030 275.0310 13.13471845196493
ONEWEB-0107             
1 48048U 21025G   25098.58762257 -.00000057  00000+0 -19057-3 0  9998
2 48048  87.8961  46.5709 0001567  83.9128 276.2179 13.13471603196476
ONEWEB-0101             
1 48049U 21025H   25098.39801541 -.00000168  00000+0 -49443-3 0  9993
2 48049  87.8967  46.6420 0001761  77.5159 282.6167 13.13470253196426
ONEWEB-0113             
1 48050U 21025J   25098.58634645 -.00000053  00000+0 -17891-3 0  9990
2 48050  87.8964  46.5753 0001961  82.6705 277.4647 13.13989717196536
ONEWEB-0112             
1 48051U 21025K   25098.36417187  .00000098  00000+0  23337-3 0  9996
2 48051  87.8958  46.6124 0001897  83.3518 276.7826 13.13472112196516
